ICEYE-X2                
1 43800U 18099AU  26196.94991139  .00002972  00000+0  14915-3 0  9993
2 43800  97.4343 250.2872 0009814 192.6493 167.4496 15.18045386417188
ICEYE-X4                
1 44390U 19038D   26196.98178596  .00006356  00000+0  22200-3 0  9996
2 44390  97.8743 231.5983 0012951 195.1860 164.8993 15.29891728386200
ICEYE-X7                
1 46496U 20068L   26196.94918215  .00006185  00000+0  20218-3 0  9993
2 46496  97.7511 164.7977 0006083 209.7616 150.3279 15.32106263319199
ICEYE-X6                
1 46497U 20068M   26196.98758237  .00001434  00000+0  10677-3 0  9994
2 46497  98.0991 192.0400 0007162   8.3097 351.8246 15.04669451317569
ICEYE-X21               
1 55049U 23001AS  26175.21618542  .01585954  23968-5  60214-3 0  9995
2 55049  97.3001 262.6152 0012377 285.9702  74.0225 16.24069885194757
ICEYE-X25               
1 56963U 23084AH  26196.89281794  .00033436  00000+0  37098-3 0  9996
2 56963  97.5914 345.1801 0004333 183.0370 177.0862 15.62871628172459
ICEYE-X31               
1 58288U 23174AJ  26196.95447516  .00009463  00000+0  27929-3 0  9996
2 58288  97.3773 272.7030 0002819 183.5042 176.6182 15.35191437149164
ICEYE-X34               
1 58294U 23174AQ  26196.83056391  .00110938  00000+0  86199-3 0  9991
2 58294  97.3864 289.5322 0001830 215.1391 144.9751 15.71438006150239
ICEYE-X35               
1 58302U 23174AY  26196.96275652  .00039411  00000+0  58213-3 0  9990
2 58302  97.3790 282.3853 0007693 105.3162 254.8943 15.55212670149811
ICEYE-X38               
1 59100U 24043C   26196.95287172  .00002532  00000+0  14699-3 0  9996
2 59100  97.8439 341.5006 0002282  19.5169 340.6148 15.13094434116021
ICEYE-X37               
1 59102U 24043E   26196.94620378  .00001738  00000+0  12260-3 0  9995
2 59102  97.8342 334.4073 0013828 271.5168  88.4474 15.06293659129416
ICEYE-X36               
1 59103U 24043F   26196.93314393  .00002685  00000+0  18250-3 0  9999
2 59103  97.8404 335.5251 0005381 211.3717 148.7190 15.07237469129472
ICEYE-X43               
1 60539U 24149BZ  26196.78535385  .00000774  00000+0  67354-4 0  9997
2 60539  97.6799 273.3667 0006481 345.1881  14.9151 14.99787819104408
ICEYE-X39               
1 60546U 24149CG  26196.76179355  .00002258  00000+0  18588-3 0  9997
2 60546  97.6790 273.4005 0006929  45.0882 315.0903 15.00075595104402
ICEYE-X33               
1 60548U 24149CJ  26196.76985598  .00002916  00000+0  23385-3 0  9995
2 60548  97.7366 275.7676 0001903  74.5375 285.6059 15.00888774104498
