{"fetched_at":"2026-07-16T06:43:01.746Z","source":"https://celestrak.org/NORAD/elements/gp.php?NAME=ICEYE&FORMAT=JSON","constellation":"iceye","records":[{"OBJECT_NAME":"ICEYE-X2","OBJECT_ID":"2018-099AU","EPOCH":"2026-07-15T22:47:52.344096","CLASSIFICATION_TYPE":"U","MEAN_MOTION":15.18045386,"ECCENTRICITY":0.00098143,"INCLINATION":97.4343,"RA_OF_ASC_NODE":250.2872,"ARG_OF_PERICENTER":192.6493,"MEAN_ANOMALY":167.4496,"EPHEMERIS_TYPE":0,"NORAD_CAT_ID":43800,"ELEMENT_SET_NO":999,"REV_AT_EPOCH":41718,"BSTAR":0.00014914885,"MEAN_MOTION_DOT":0.00002972,"MEAN_MOTION_DDOT":0},{"OBJECT_NAME":"ICEYE-X4","OBJECT_ID":"2019-038D","EPOCH":"2026-07-15T23:33:46.306944","CLASSIFICATION_TYPE":"U","MEAN_MOTION":15.29891728,"ECCENTRICITY":0.00129514,"INCLINATION":97.8743,"RA_OF_ASC_NODE":231.5983,"ARG_OF_PERICENTER":195.186,"MEAN_ANOMALY":164.8993,"EPHEMERIS_TYPE":0,"NORAD_CAT_ID":44390,"ELEMENT_SET_NO":999,"REV_AT_EPOCH":38620,"BSTAR":0.00022199837,"MEAN_MOTION_DOT":0.00006356,"MEAN_MOTION_DDOT":0},{"OBJECT_NAME":"ICEYE-X7","OBJECT_ID":"2020-068L","EPOCH":"2026-07-15T22:46:49.337760","CLASSIFICATION_TYPE":"U","MEAN_MOTION":15.32106263,"ECCENTRICITY":0.00060831,"INCLINATION":97.7511,"RA_OF_ASC_NODE":164.7977,"ARG_OF_PERICENTER":209.7616,"MEAN_ANOMALY":150.3279,"EPHEMERIS_TYPE":0,"NORAD_CAT_ID":46496,"ELEMENT_SET_NO":999,"REV_AT_EPOCH":31919,"BSTAR":0.00020217678,"MEAN_MOTION_DOT":0.00006185,"MEAN_MOTION_DDOT":0},{"OBJECT_NAME":"ICEYE-X6","OBJECT_ID":"2020-068M","EPOCH":"2026-07-15T23:42:07.116768","CLASSIFICATION_TYPE":"U","MEAN_MOTION":15.04669451,"ECCENTRICITY":0.00071622,"INCLINATION":98.0991,"RA_OF_ASC_NODE":192.04,"ARG_OF_PERICENTER":8.3097,"MEAN_ANOMALY":351.8246,"EPHEMERIS_TYPE":0,"NORAD_CAT_ID":46497,"ELEMENT_SET_NO":999,"REV_AT_EPOCH":31756,"BSTAR":0.00010677048,"MEAN_MOTION_DOT":0.00001434,"MEAN_MOTION_DDOT":0},{"OBJECT_NAME":"ICEYE-X21","OBJECT_ID":"2023-001AS","EPOCH":"2026-06-24T05:11:18.420288","CLASSIFICATION_TYPE":"U","MEAN_MOTION":16.24069885,"ECCENTRICITY":0.00123774,"INCLINATION":97.3001,"RA_OF_ASC_NODE":262.6152,"ARG_OF_PERICENTER":285.9702,"MEAN_ANOMALY":74.0225,"EPHEMERIS_TYPE":0,"NORAD_CAT_ID":55049,"ELEMENT_SET_NO":999,"REV_AT_EPOCH":19475,"BSTAR":0.000602142,"MEAN_MOTION_DOT":0.01585954,"MEAN_MOTION_DDOT":0.000002396838},{"OBJECT_NAME":"ICEYE-X25","OBJECT_ID":"2023-084AH","EPOCH":"2026-07-15T21:25:39.470016","CLASSIFICATION_TYPE":"U","MEAN_MOTION":15.62871628,"ECCENTRICITY":0.00043333,"INCLINATION":97.5914,"RA_OF_ASC_NODE":345.1801,"ARG_OF_PERICENTER":183.037,"MEAN_ANOMALY":177.0862,"EPHEMERIS_TYPE":0,"NORAD_CAT_ID":56963,"ELEMENT_SET_NO":999,"REV_AT_EPOCH":17245,"BSTAR":0.00037097609,"MEAN_MOTION_DOT":0.00033436,"MEAN_MOTION_DDOT":0},{"OBJECT_NAME":"ICEYE-X31","OBJECT_ID":"2023-174AJ","EPOCH":"2026-07-15T22:54:26.653824","CLASSIFICATION_TYPE":"U","MEAN_MOTION":15.35191437,"ECCENTRICITY":0.00028198,"INCLINATION":97.3773,"RA_OF_ASC_NODE":272.703,"ARG_OF_PERICENTER":183.5042,"MEAN_ANOMALY":176.6182,"EPHEMERIS_TYPE":0,"NORAD_CAT_ID":58288,"ELEMENT_SET_NO":999,"REV_AT_EPOCH":14916,"BSTAR":0.00027929483,"MEAN_MOTION_DOT":0.00009463,"MEAN_MOTION_DDOT":0},{"OBJECT_NAME":"ICEYE-X34","OBJECT_ID":"2023-174AQ","EPOCH":"2026-07-15T19:56:00.721824","CLASSIFICATION_TYPE":"U","MEAN_MOTION":15.71438006,"ECCENTRICITY":0.00018309,"INCLINATION":97.3864,"RA_OF_ASC_NODE":289.5322,"ARG_OF_PERICENTER":215.1391,"MEAN_ANOMALY":144.9751,"EPHEMERIS_TYPE":0,"NORAD_CAT_ID":58294,"ELEMENT_SET_NO":999,"REV_AT_EPOCH":15023,"BSTAR":0.00086198584,"MEAN_MOTION_DOT":0.00110938,"MEAN_MOTION_DDOT":0},{"OBJECT_NAME":"ICEYE-X35","OBJECT_ID":"2023-174AY","EPOCH":"2026-07-15T23:06:22.163328","CLASSIFICATION_TYPE":"U","MEAN_MOTION":15.5521267,"ECCENTRICITY":0.00076938,"INCLINATION":97.379,"RA_OF_ASC_NODE":282.3853,"ARG_OF_PERICENTER":105.3162,"MEAN_ANOMALY":254.8943,"EPHEMERIS_TYPE":0,"NORAD_CAT_ID":58302,"ELEMENT_SET_NO":999,"REV_AT_EPOCH":14981,"BSTAR":0.00058213451,"MEAN_MOTION_DOT":0.00039411,"MEAN_MOTION_DDOT":0},{"OBJECT_NAME":"ICEYE-X38","OBJECT_ID":"2024-043C","EPOCH":"2026-07-15T22:52:08.116608","CLASSIFICATION_TYPE":"U","MEAN_MOTION":15.13094434,"ECCENTRICITY":0.00022829,"INCLINATION":97.8439,"RA_OF_ASC_NODE":341.5006,"ARG_OF_PERICENTER":19.5169,"MEAN_ANOMALY":340.6148,"EPHEMERIS_TYPE":0,"NORAD_CAT_ID":59100,"ELEMENT_SET_NO":999,"REV_AT_EPOCH":11602,"BSTAR":0.00014699008,"MEAN_MOTION_DOT":0.00002532,"MEAN_MOTION_DDOT":0},{"OBJECT_NAME":"ICEYE-X37","OBJECT_ID":"2024-043E","EPOCH":"2026-07-15T22:42:32.006592","CLASSIFICATION_TYPE":"U","MEAN_MOTION":15.06293659,"ECCENTRICITY":0.00138282,"INCLINATION":97.8342,"RA_OF_ASC_NODE":334.4073,"ARG_OF_PERICENTER":271.5168,"MEAN_ANOMALY":88.4474,"EPHEMERIS_TYPE":0,"NORAD_CAT_ID":59102,"ELEMENT_SET_NO":999,"REV_AT_EPOCH":12941,"BSTAR":0.0001226021,"MEAN_MOTION_DOT":0.00001738,"MEAN_MOTION_DDOT":0},{"OBJECT_NAME":"ICEYE-X36","OBJECT_ID":"2024-043F","EPOCH":"2026-07-15T22:23:43.635552","CLASSIFICATION_TYPE":"U","MEAN_MOTION":15.07237469,"ECCENTRICITY":0.00053814,"INCLINATION":97.8404,"RA_OF_ASC_NODE":335.5251,"ARG_OF_PERICENTER":211.3717,"MEAN_ANOMALY":148.719,"EPHEMERIS_TYPE":0,"NORAD_CAT_ID":59103,"ELEMENT_SET_NO":999,"REV_AT_EPOCH":12947,"BSTAR":0.00018249553,"MEAN_MOTION_DOT":0.00002685,"MEAN_MOTION_DDOT":0},{"OBJECT_NAME":"ICEYE-X43","OBJECT_ID":"2024-149BZ","EPOCH":"2026-07-15T18:50:54.572640","CLASSIFICATION_TYPE":"U","MEAN_MOTION":14.99787819,"ECCENTRICITY":0.00064811,"INCLINATION":97.6799,"RA_OF_ASC_NODE":273.3667,"ARG_OF_PERICENTER":345.1881,"MEAN_ANOMALY":14.9151,"EPHEMERIS_TYPE":0,"NORAD_CAT_ID":60539,"ELEMENT_SET_NO":999,"REV_AT_EPOCH":10440,"BSTAR":0.000067353928,"MEAN_MOTION_DOT":0.00000774,"MEAN_MOTION_DDOT":0},{"OBJECT_NAME":"ICEYE-X39","OBJECT_ID":"2024-149CG","EPOCH":"2026-07-15T18:16:58.962720","CLASSIFICATION_TYPE":"U","MEAN_MOTION":15.00075595,"ECCENTRICITY":0.00069298,"INCLINATION":97.679,"RA_OF_ASC_NODE":273.4005,"ARG_OF_PERICENTER":45.0882,"MEAN_ANOMALY":315.0903,"EPHEMERIS_TYPE":0,"NORAD_CAT_ID":60546,"ELEMENT_SET_NO":999,"REV_AT_EPOCH":10440,"BSTAR":0.00018588028,"MEAN_MOTION_DOT":0.00002258,"MEAN_MOTION_DDOT":0},{"OBJECT_NAME":"ICEYE-X33","OBJECT_ID":"2024-149CJ","EPOCH":"2026-07-15T18:28:35.556672","CLASSIFICATION_TYPE":"U","MEAN_MOTION":15.00888774,"ECCENTRICITY":0.00019038,"INCLINATION":97.7366,"RA_OF_ASC_NODE":275.7676,"ARG_OF_PERICENTER":74.5375,"MEAN_ANOMALY":285.6059,"EPHEMERIS_TYPE":0,"NORAD_CAT_ID":60548,"ELEMENT_SET_NO":999,"REV_AT_EPOCH":10449,"BSTAR":0.00023385219,"MEAN_MOTION_DOT":0.00002916,"MEAN_MOTION_DDOT":0}]}
